[
	{
		"id": 36,
		"name": "东城",
		"parentid": 1,
		"haschild": false,
		"initial": "d",
		"initials": "dc",
		"pinyin": "dongcheng",
		"suffix": "区",
		"code": "110101",
		"order": 1
	},
	{
		"id": 37,
		"name": "西城",
		"parentid": 1,
		"haschild": false,
		"initial": "x",
		"initials": "xc",
		"pinyin": "xicheng",
		"suffix": "区",
		"code": "110102",
		"order": 2
	},
	{
		"id": 38,
		"name": "崇文",
		"parentid": 1,
		"haschild": false,
		"initial": "c",
		"initials": "cw",
		"pinyin": "chongwen",
		"suffix": "区",
		"code": "110103",
		"order": 3
	},
	{
		"id": 39,
		"name": "宣武",
		"parentid": 1,
		"haschild": false,
		"initial": "x",
		"initials": "xw",
		"pinyin": "xuanwu",
		"suffix": "区",
		"code": "110104",
		"order": 4
	},
	{
		"id": 40,
		"name": "朝阳",
		"parentid": 1,
		"haschild": false,
		"initial": "c",
		"initials": "cy",
		"pinyin": "chaoyang",
		"suffix": "区",
		"code": "110105",
		"order": 5
	},
	{
		"id": 41,
		"name": "丰台",
		"parentid": 1,
		"haschild": false,
		"initial": "f",
		"initials": "ft",
		"pinyin": "fengtai",
		"suffix": "区",
		"code": "110106",
		"order": 6
	},
	{
		"id": 42,
		"name": "石景山",
		"parentid": 1,
		"haschild": false,
		"initial": "s",
		"initials": "sjs",
		"pinyin": "shijingshan",
		"suffix": "区",
		"code": "110107",
		"order": 7
	},
	{
		"id": 43,
		"name": "海淀",
		"parentid": 1,
		"haschild": false,
		"initial": "h",
		"initials": "hd",
		"pinyin": "haidian",
		"suffix": "区",
		"code": "110108",
		"order": 8
	},
	{
		"id": 44,
		"name": "门头沟",
		"parentid": 1,
		"haschild": false,
		"initial": "m",
		"initials": "mtg",
		"pinyin": "mentougou",
		"suffix": "区",
		"code": "110109",
		"order": 9
	},
	{
		"id": 45,
		"name": "房山",
		"parentid": 1,
		"haschild": false,
		"initial": "f",
		"initials": "fs",
		"pinyin": "fangshan",
		"suffix": "区",
		"code": "110111",
		"order": 10
	},
	{
		"id": 46,
		"name": "通州",
		"parentid": 1,
		"haschild": false,
		"initial": "t",
		"initials": "tz",
		"pinyin": "tongzhou",
		"suffix": "区",
		"code": "110112",
		"order": 11
	},
	{
		"id": 47,
		"name": "顺义",
		"parentid": 1,
		"haschild": false,
		"initial": "s",
		"initials": "sy",
		"pinyin": "shunyi",
		"suffix": "区",
		"code": "110113",
		"order": 12
	},
	{
		"id": 48,
		"name": "昌平",
		"parentid": 1,
		"haschild": false,
		"initial": "c",
		"initials": "cp",
		"pinyin": "changping",
		"suffix": "区",
		"code": "110114",
		"order": 13
	},
	{
		"id": 49,
		"name": "大兴",
		"parentid": 1,
		"haschild": false,
		"initial": "d",
		"initials": "dx",
		"pinyin": "daxing",
		"suffix": "区",
		"code": "110115",
		"order": 14
	},
	{
		"id": 50,
		"name": "怀柔",
		"parentid": 1,
		"haschild": false,
		"initial": "h",
		"initials": "hr",
		"pinyin": "huairou",
		"suffix": "区",
		"code": "110116",
		"order": 15
	},
	{
		"id": 51,
		"name": "平谷",
		"parentid": 1,
		"haschild": false,
		"initial": "p",
		"initials": "pg",
		"pinyin": "pinggu",
		"suffix": "区",
		"code": "110117",
		"order": 16
	},
	{
		"id": 52,
		"name": "密云",
		"parentid": 1,
		"haschild": false,
		"initial": "m",
		"initials": "my",
		"pinyin": "miyun",
		"suffix": "县",
		"code": "110228",
		"order": 17
	},
	{
		"id": 53,
		"name": "延庆",
		"parentid": 1,
		"haschild": false,
		"initial": "y",
		"initials": "yq",
		"pinyin": "yanqing",
		"suffix": "县",
		"code": "110229",
		"order": 18
	}
]
