[
	{
		"id": 1993,
		"name": "江岸",
		"parentid": 290,
		"hadchild": false,
		"initial": "j",
		"initials": "ja",
		"pinyin": "jiangan",
		"suffix": "区",
		"code": "420102",
		"order": 1
	},
	{
		"id": 1994,
		"name": "江汉",
		"parentid": 290,
		"hadchild": false,
		"initial": "j",
		"initials": "jh",
		"pinyin": "jianghan",
		"suffix": "区",
		"code": "420103",
		"order": 2
	},
	{
		"id": 1995,
		"name": "硚口",
		"parentid": 290,
		"hadchild": false,
		"initial": "q",
		"initials": "qk",
		"pinyin": "qiaokou",
		"suffix": "区",
		"code": "420104",
		"order": 3
	},
	{
		"id": 1996,
		"name": "汉阳",
		"parentid": 290,
		"hadchild": false,
		"initial": "h",
		"initials": "hy",
		"pinyin": "hanyang",
		"suffix": "区",
		"code": "420105",
		"order": 4
	},
	{
		"id": 1997,
		"name": "武昌",
		"parentid": 290,
		"hadchild": false,
		"initial": "w",
		"initials": "wc",
		"pinyin": "wuchang",
		"suffix": "区",
		"code": "420106",
		"order": 5
	},
	{
		"id": 1998,
		"name": "青山",
		"parentid": 290,
		"hadchild": false,
		"initial": "q",
		"initials": "qs",
		"pinyin": "qingshan",
		"suffix": "区",
		"code": "420107",
		"order": 6
	},
	{
		"id": 1999,
		"name": "洪山",
		"parentid": 290,
		"hadchild": false,
		"initial": "h",
		"initials": "hs",
		"pinyin": "hongshan",
		"suffix": "区",
		"code": "420111",
		"order": 7
	},
	{
		"id": 2000,
		"name": "东西湖",
		"parentid": 290,
		"hadchild": false,
		"initial": "d",
		"initials": "dxh",
		"pinyin": "dongxihu",
		"suffix": "区",
		"code": "420112",
		"order": 8
	},
	{
		"id": 2001,
		"name": "汉南",
		"parentid": 290,
		"hadchild": false,
		"initial": "h",
		"initials": "hn",
		"pinyin": "hannan",
		"suffix": "区",
		"code": "420113",
		"order": 9
	},
	{
		"id": 2002,
		"name": "蔡甸",
		"parentid": 290,
		"hadchild": false,
		"initial": "c",
		"initials": "cd",
		"pinyin": "caidian",
		"suffix": "区",
		"code": "420114",
		"order": 10
	},
	{
		"id": 2003,
		"name": "江夏",
		"parentid": 290,
		"hadchild": false,
		"initial": "j",
		"initials": "jx",
		"pinyin": "jiangxia",
		"suffix": "区",
		"code": "420115",
		"order": 11
	},
	{
		"id": 2004,
		"name": "黄陂",
		"parentid": 290,
		"hadchild": false,
		"initial": "h",
		"initials": "hp",
		"pinyin": "huangpo",
		"suffix": "区",
		"code": "420116",
		"order": 12
	},
	{
		"id": 2005,
		"name": "新洲",
		"parentid": 290,
		"hadchild": false,
		"initial": "x",
		"initials": "xz",
		"pinyin": "xinzhou",
		"suffix": "区",
		"code": "420117",
		"order": 13
	}
]
